{
  "type": "FeatureCollection",
  "features": [
    {
      "type": "Feature",
      "properties": {
        "norad_id": 36828,
        "name": "BEIDOU-2 IGSO-1 (C06)",
        "group": "beidou",
        "lat": 4.834032164121859,
        "lon": 168.13062844687514,
        "alt_km": 35971.669746780164,
        "timestamp": "2025-12-12T22:42:12.810598+00:00",
        "meta_object_name": "BEIDOU-2 IGSO-1 (C06)",
        "meta_object_id": "2010-036A",
        "meta_epoch": "2025-12-11T21:55:21.552960",
        "meta_mean_motion": 1.00276302,
        "meta_eccentricity": 0.0051169,
        "meta_inclination": 54.2856,
        "meta_ra_of_asc_node": 164.6546,
        "meta_arg_of_pericenter": 215.8043,
        "meta_mean_anomaly": 137.1278,
        "meta_ephemeris_type": 0,
        "meta_classification_type": "U",
        "meta_norad_cat_id": 36828,
        "meta_element_set_no": 999,
        "meta_rev_at_epoch": 5621,
        "meta_bstar": 0,
        "meta_mean_motion_dot": -4.7e-07,
        "meta_mean_motion_ddot": 0,
        "tle_line1": "1 36828U 10036A   25345.91344390 -.00000047  00000+0  00000+0 0  9999",
        "tle_line2": "2 36828  54.2856 164.6546 0051169 215.8043 137.1278  1.00276302 56210"
      },
      "geometry": {
        "type": "Point",
        "coordinates": [
          168.13062844687514,
          4.834032164121859
        ]
      }
    },
    {
      "type": "Feature",
      "properties": {
        "norad_id": 37210,
        "name": "BEIDOU-2 G4 (C04)",
        "group": "beidou",
        "lat": 1.4541538130257916,
        "lon": -137.53254994395792,
        "alt_km": 35749.78762983959,
        "timestamp": "2025-12-12T22:42:12.810621+00:00",
        "meta_object_name": "BEIDOU-2 G4 (C04)",
        "meta_object_id": "2010-057A",
        "meta_epoch": "2025-12-12T05:40:55.967232",
        "meta_mean_motion": 1.00271455,
        "meta_eccentricity": 0.00108873,
        "meta_inclination": 3.1837,
        "meta_ra_of_asc_node": 69.9403,
        "meta_arg_of_pericenter": 190.7636,
        "meta_mean_anomaly": 65.7887,
        "meta_ephemeris_type": 0,
        "meta_classification_type": "U",
        "meta_norad_cat_id": 37210,
        "meta_element_set_no": 999,
        "meta_rev_at_epoch": 5541,
        "meta_bstar": 0,
        "meta_mean_motion_dot": -1.02e-06,
        "meta_mean_motion_ddot": 0,
        "tle_line1": "1 37210U 10057A   25346.23675888 -.00000102  00000+0  00000+0 0  9995",
        "tle_line2": "2 37210   3.1837  69.9403 0010887 190.7636  65.7887  1.00271455 55415"
      },
      "geometry": {
        "type": "Point",
        "coordinates": [
          -137.53254994395792,
          1.4541538130257916
        ]
      }
    },
    {
      "type": "Feature",
      "properties": {
        "norad_id": 37256,
        "name": "BEIDOU-2 IGSO-2 (C07)",
        "group": "beidou",
        "lat": -46.143556041622794,
        "lon": 164.11744823662207,
        "alt_km": 35629.0362144024,
        "timestamp": "2025-12-12T22:42:12.810636+00:00",
        "meta_object_name": "BEIDOU-2 IGSO-2 (C07)",
        "meta_object_id": "2010-068A",
        "meta_epoch": "2025-12-03T17:22:36.027840",
        "meta_mean_motion": 1.0028872,
        "meta_eccentricity": 0.00492449,
        "meta_inclination": 47.9042,
        "meta_ra_of_asc_node": 274.2614,
        "meta_arg_of_pericenter": 216.1411,
        "meta_mean_anomaly": 310.24,
        "meta_ephemeris_type": 0,
        "meta_classification_type": "U",
        "meta_norad_cat_id": 37256,
        "meta_element_set_no": 999,
        "meta_rev_at_epoch": 5483,
        "meta_bstar": 0,
        "meta_mean_motion_dot": -2.25e-06,
        "meta_mean_motion_ddot": 0,
        "tle_line1": "1 37256U 10068A   25337.72402810 -.00000225  00000+0  00000+0 0  9990",
        "tle_line2": "2 37256  47.9042 274.2614 0049244 216.1411 310.2400  1.00288720 54834"
      },
      "geometry": {
        "type": "Point",
        "coordinates": [
          164.11744823662207,
          -46.143556041622794
        ]
      }
    },
    {
      "type": "Feature",
      "properties": {
        "norad_id": 37384,
        "name": "BEIDOU-2 IGSO-3 (C08)",
        "group": "beidou",
        "lat": 44.412605713999206,
        "lon": -169.21323524456707,
        "alt_km": 35706.47015814908,
        "timestamp": "2025-12-12T22:42:12.810651+00:00",
        "meta_object_name": "BEIDOU-2 IGSO-3 (C08)",
        "meta_object_id": "2011-013A",
        "meta_epoch": "2025-12-11T15:37:03.975744",
        "meta_mean_motion": 1.00271037,
        "meta_eccentricity": 0.00354451,
        "meta_inclination": 62.1431,
        "meta_ra_of_asc_node": 41.9258,
        "meta_arg_of_pericenter": 187.4472,
        "meta_mean_anomaly": 193.0762,
        "meta_ephemeris_type": 0,
        "meta_classification_type": "U",
        "meta_norad_cat_id": 37384,
        "meta_element_set_no": 999,
        "meta_rev_at_epoch": 5378,
        "meta_bstar": 0,
        "meta_mean_motion_dot": -1.96e-06,
        "meta_mean_motion_ddot": 0,
        "tle_line1": "1 37384U 11013A   25345.65074046 -.00000196  00000+0  00000+0 0  9997",
        "tle_line2": "2 37384  62.1431  41.9258 0035445 187.4472 193.0762  1.00271037 53789"
      },
      "geometry": {
        "type": "Point",
        "coordinates": [
          -169.21323524456707,
          44.412605713999206
        ]
      }
    },
    {
      "type": "Feature",
      "properties": {
        "norad_id": 37763,
        "name": "BEIDOU-2 IGSO-4 (C09)",
        "group": "beidou",
        "lat": -7.3397622428775735,
        "lon": 162.07423250068854,
        "alt_km": 36098.1838858866,
        "timestamp": "2025-12-12T22:42:12.810664+00:00",
        "meta_object_name": "BEIDOU-2 IGSO-4 (C09)",
        "meta_object_id": "2011-038A",
        "meta_epoch": "2025-12-10T12:04:03.489024",
        "meta_mean_motion": 1.00284678,
        "meta_eccentricity": 0.01490344,
        "meta_inclination": 54.5829,
        "meta_ra_of_asc_node": 167.3658,
        "meta_arg_of_pericenter": 230.2355,
        "meta_mean_anomaly": 317.2212,
        "meta_ephemeris_type": 0,
        "meta_classification_type": "U",
        "meta_norad_cat_id": 37763,
        "meta_element_set_no": 999,
        "meta_rev_at_epoch": 5275,
        "meta_bstar": 0,
        "meta_mean_motion_dot": 3.6e-07,
        "meta_mean_motion_ddot": 0,
        "tle_line1": "1 37763U 11038A   25344.50281816  .00000036  00000+0  00000+0 0  9995",
        "tle_line2": "2 37763  54.5829 167.3658 0149034 230.2355 317.2212  1.00284678 52751"
      },
      "geometry": {
        "type": "Point",
        "coordinates": [
          162.07423250068854,
          -7.3397622428775735
        ]
      }
    },
    {
      "type": "Feature",
      "properties": {
        "norad_id": 37948,
        "name": "BEIDOU-2 IGSO-5 (C10)",
        "group": "beidou",
        "lat": -41.059079994578454,
        "lon": 145.35340931111784,
        "alt_km": 35349.22881584153,
        "timestamp": "2025-12-12T22:42:12.810677+00:00",
        "meta_object_name": "BEIDOU-2 IGSO-5 (C10)",
        "meta_object_id": "2011-073A",
        "meta_epoch": "2025-12-11T18:52:10.587360",
        "meta_mean_motion": 1.00291294,
        "meta_eccentricity": 0.0110188,
        "meta_inclination": 48.0217,
        "meta_ra_of_asc_node": 273.869,
        "meta_arg_of_pericenter": 222.2695,
        "meta_mean_anomaly": 320.5714,
        "meta_ephemeris_type": 0,
        "meta_classification_type": "U",
        "meta_norad_cat_id": 37948,
        "meta_element_set_no": 999,
        "meta_rev_at_epoch": 5125,
        "meta_bstar": 0,
        "meta_mean_motion_dot": -2.2e-06,
        "meta_mean_motion_ddot": 0,
        "tle_line1": "1 37948U 11073A   25345.78623365 -.00000220  00000+0  00000+0 0  9995",
        "tle_line2": "2 37948  48.0217 273.8690 0110188 222.2695 320.5714  1.00291294 51250"
      },
      "geometry": {
        "type": "Point",
        "coordinates": [
          145.35340931111784,
          -41.059079994578454
        ]
      }
    },
    {
      "type": "Feature",
      "properties": {
        "norad_id": 38091,
        "name": "BEIDOU-2 G5 (C05)",
        "group": "beidou",
        "lat": 2.4115834245175507,
        "lon": 121.17637794871801,
        "alt_km": 35837.6797911809,
        "timestamp": "2025-12-12T22:42:12.810689+00:00",
        "meta_object_name": "BEIDOU-2 G5 (C05)",
        "meta_object_id": "2012-008A",
        "meta_epoch": "2025-12-12T03:29:14.476416",
        "meta_mean_motion": 1.00275381,
        "meta_eccentricity": 0.00125829,
        "meta_inclination": 3.1081,
        "meta_ra_of_asc_node": 70.7123,
        "meta_arg_of_pericenter": 227.2243,
        "meta_mean_anomaly": 254.2507,
        "meta_ephemeris_type": 0,
        "meta_classification_type": "U",
        "meta_norad_cat_id": 38091,
        "meta_element_set_no": 999,
        "meta_rev_at_epoch": 5049,
        "meta_bstar": 0,
        "meta_mean_motion_dot": 6.5e-07,
        "meta_mean_motion_ddot": 0,
        "tle_line1": "1 38091U 12008A   25346.14530644  .00000065  00000+0  00000+0 0  9998",
        "tle_line2": "2 38091   3.1081  70.7123 0012582 227.2243 254.2507  1.00275381 50496"
      },
      "geometry": {
        "type": "Point",
        "coordinates": [
          121.17637794871801,
          2.4115834245175507
        ]
      }
    }
  ]
}